NORAD_CAT_ID,OBJECT_NAME,OBJECT_TYPE,EPOCH,MEAN_MOTION,ECCENTRICITY,INCLINATION,RA_OF_ASC_NODE,ARG_OF_PERICENTER,MEAN_ANOMALY,BSTAR,MEAN_MOTION_DOT,MEAN_MOTION_DDOT,TLE_LINE0,TLE_LINE1,TLE_LINE2,SEMIMAJOR_AXIS,PERIOD,APOGEE,PERIGEE,DECAYED
49180.0,STARLINK-3050,PAYLOAD,2023-08-15 01:16:41,14.98334908,0.0003163,69.9997,118.57,267.503,92.5767,6.4628e-05,6.78e-06,0.0,0 STARLINK-3050,1 49180U 21082BC  23227.05325427  .00000678  00000-0  64628-4 0  9990,2 49180  69.9997 118.5700 0003163 267.5030  92.5767 14.98334908107194,6950.178,96.107,574.241,569.844,0.0
49180.0,STARLINK-3050,PAYLOAD,2023-08-16 01:18:42,14.98325844,0.0003231,69.9996,116.0451,267.2422,92.8368,2.784e-05,2.39e-06,0.0,0 STARLINK-3050,1 49180U 21082BC  23228.05466111  .00000239  00000-0  27840-4 0  9995,2 49180  69.9996 116.0451 0003231 267.2422  92.8368 14.98325844107343,6950.206,96.107,574.316,569.825,0.0
49180.0,STARLINK-3050,PAYLOAD,2023-08-16 15:43:54,14.98333684,0.0003275,69.9997,114.53,268.3061,91.7723,5.0725e-05,5.12e-06,0.0,0 STARLINK-3050,1 49180U 21082BC  23228.65549680  .00000512  00000-0  50725-4 0  9996,2 49180  69.9997 114.5300 0003275 268.3061  91.7723 14.98333684107433,6950.181,96.107,574.323,569.77,0.0
49180.0,STARLINK-3050,PAYLOAD,2023-08-17 01:20:42,14.98341595,0.0003233,69.9995,113.5201,267.9659,92.113,0.00013524,1.521e-05,0.0,0 STARLINK-3050,1 49180U 21082BC  23229.05604854  .00001521  00000-0  13524-3 0  9992,2 49180  69.9995 113.5201 0003233 267.9659  92.1130 14.98341595107495,6950.157,96.106,574.269,569.775,0.0
49180.0,STARLINK-3050,PAYLOAD,2023-08-17 15:45:55,14.98329505,0.0003136,69.9986,112.0055,266.3994,93.6807,0.00013062,1.466e-05,0.0,0 STARLINK-3050,1 49180U 21082BC  23229.65689458  .00001466  00000-0  13062-3 0  9996,2 49180  69.9986 112.0055 0003136 266.3994  93.6807 14.98329505107587,6950.194,96.107,574.239,569.88,0.0
49180.0,STARLINK-3050,PAYLOAD,2023-08-18 19:00:12,14.98332159,0.0003161,69.9994,109.143,267.3958,92.6839,-2.5125e-05,-3.93e-06,0.0,0 STARLINK-3050,1 49180U 21082BC  23230.79181576 -.00000393  00000-0 -25125-4 0  9995,2 49180  69.9994 109.1430 0003161 267.3958  92.6839 14.98332159107751,6950.186,96.107,574.248,569.854,0.0
49180.0,STARLINK-3050,PAYLOAD,2023-08-19 01:24:42,14.98407511,0.0003537,69.9997,108.4695,264.3304,95.7452,-0.0012985,-0.00015584,0.0,0 STARLINK-3050,1 49180U 21082BC  23231.05882902 -.00015584  00000-0 -12985-2 0  9992,2 49180  69.9997 108.4695 0003537 264.3304  95.7452 14.98407511107792,6949.953,96.102,574.276,569.36,0.0
49180.0,STARLINK-3050,PAYLOAD,2023-08-19 15:49:57,14.98324585,0.0003223,69.9996,106.9549,267.8187,92.2603,1.5074e-05,8.7e-07,0.0,0 STARLINK-3050,1 49180U 21082BC  23231.65969818  .00000087  00000-0  15074-4 0  9994,2 49180  69.9996 106.9549 0003223 267.8187  92.2603 14.98324585107880,6950.21,96.107,574.315,569.835,0.0
49180.0,STARLINK-3050,PAYLOAD,2023-08-20 17:28:06,14.98333634,0.0003222,69.9992,104.2624,268.0059,92.0731,7.4655e-05,7.98e-06,0.0,0 STARLINK-3050,1 49180U 21082BC  23232.72785208  .00000798  00000-0  74655-4 0  9991,2 49180  69.9992 104.2624 0003222 268.0059  92.0731 14.98333634108045,6950.182,96.107,574.286,569.807,0.0
49180.0,STARLINK-3050,PAYLOAD,2023-08-21 20:42:23,14.98328724,0.0003163,69.9998,101.4005,270.3094,89.7702,5.1825e-05,5.25e-06,0.0,0 STARLINK-3050,1 49180U 21082BC  23233.86277515  .00000525  00000-0  51825-4 0  9996,2 49180  69.9998 101.4005 0003163 270.3094  89.7702 14.98328724108216,6950.197,96.107,574.26,569.863,0.0
49180.0,STARLINK-3050,PAYLOAD,2023-08-23 01:32:48,14.98334485,0.000299,69.9995,98.3707,269.7614,90.3202,2.5219e-05,2.08e-06,0.0,0 STARLINK-3050,1 49180U 21082BC  23235.06445278  .00000208  00000-0  25219-4 0  9999,2 49180  69.9995  98.3707 0002990 269.7614  90.3202 14.98334485108396,6950.179,96.107,574.122,569.966,0.0
49180.0,STARLINK-3050,PAYLOAD,2023-08-24 17:36:10,14.98329448,0.0003097,69.9996,94.1619,270.7955,89.2849,3.2677e-05,2.97e-06,0.0,0 STARLINK-3050,1 49180U 21082BC  23236.73345455  .00000297  00000-0  32677-4 0  9994,2 49180  69.9996  94.1619 0003097 270.7955  89.2849 14.98329448108647,6950.195,96.107,574.212,569.907,0.0
49180.0,STARLINK-3050,PAYLOAD,2023-08-25 00:00:42,14.98332993,0.0003103,69.9996,93.4886,271.1171,88.9633,6.807e-05,7.19e-06,0.0,0 STARLINK-3050,1 49180U 21082BC  23237.00049133  .00000719  00000-0  68070-4 0  9994,2 49180  69.9996  93.4886 0003103 271.1171  88.9633 14.98332993108688,6950.184,96.107,574.205,569.892,0.0
49180.0,STARLINK-3050,PAYLOAD,2023-08-25 19:14:19,14.98334427,0.0003105,69.9996,91.4685,271.5317,88.5486,2.4999e-06,-6.3e-07,0.0,0 STARLINK-3050,1 49180U 21082BC  23237.80161083 -.00000063  00000-0  24999-5 0  9997,2 49180  69.9996  91.4685 0003105 271.5317  88.5486 14.98334427108801,6950.179,96.107,574.202,569.886,0.0
49180.0,STARLINK-3050,PAYLOAD,2023-08-25 20:50:27,14.98334476,0.0003105,69.9995,91.3002,271.4817,88.5986,3.2602e-06,-5.4e-07,0.0,0 STARLINK-3050,1 49180U 21082BC  23237.86837059 -.00000054  00000-0  32602-5 0  9996,2 49180  69.9995  91.3002 0003105 271.4817  88.5986 14.98334476108816,6950.179,96.107,574.202,569.886,0.0
49180.0,STARLINK-3050,PAYLOAD,2023-08-26 14:27:56,14.98330489,0.0003105,69.9993,89.4486,270.834,89.2463,1.3597e-05,6.9e-07,0.0,0 STARLINK-3050,1 49180U 21082BC  23238.60273176  .00000069  00000-0  13597-4 0  9999,2 49180  69.9993  89.4486 0003105 270.8340  89.2463 14.98330489108922,6950.191,96.107,574.214,569.898,0.0
49180.0,STARLINK-3050,PAYLOAD,2023-08-26 20:52:28,14.98325659,0.000281,69.9991,88.7753,284.5178,75.5669,9.8105e-05,1.078e-05,0.0,0 STARLINK-3050,1 49180U 21082BC  23238.86977402  .00001078  00000-0  98105-4 0  9999,2 49180  69.9991  88.7753 0002810 284.5178  75.5669 14.98325659108965,6950.206,96.107,574.024,570.118,0.0
49180.0,STARLINK-3050,PAYLOAD,2023-08-27 00:04:44,14.98325664,0.0002901,69.9991,88.4387,279.8039,80.2792,0.0001351,1.519e-05,0.0,0 STARLINK-3050,1 49180U 21082BC  23239.00329321  .00001519  00000-0  13510-3 0  9993,2 49180  69.9991  88.4387 0002901 279.8039  80.2792 14.98325664108987,6950.206,96.107,574.088,570.055,0.0
49180.0,STARLINK-3050,PAYLOAD,2023-08-27 20:54:29,14.98332608,0.0003155,69.9991,86.2505,270.7786,89.3011,3.7136e-05,3.5e-06,0.0,0 STARLINK-3050,1 49180U 21082BC  23239.87116913  .00000350  00000-0  37136-4 0  9992,2 49180  69.9991  86.2505 0003155 270.7786  89.3011 14.98332608109112,6950.185,96.107,574.243,569.857,0.0
49180.0,STARLINK-3050,PAYLOAD,2023-08-28 00:06:45,14.98334011,0.0003153,69.9991,85.9138,271.0743,89.0055,4.8699e-05,4.88e-06,0.0,0 STARLINK-3050,1 49180U 21082BC  23240.00468773  .00000488  00000-0  48699-4 0  9991,2 49180  69.9991  85.9138 0003153 271.0743  89.0055 14.98334011109132,6950.18,96.107,574.237,569.854,0.0
49180.0,STARLINK-3050,PAYLOAD,2023-08-28 17:44:14,14.98327285,0.0003061,69.9992,84.0623,271.3521,88.7287,3.3975e-05,3.12e-06,0.0,0 STARLINK-3050,1 49180U 21082BC  23240.73905246  .00000312  00000-0  33975-4 0  9999,2 49180  69.9992  84.0623 0003061 271.3521  88.7287 14.98327285109247,6950.201,96.107,574.194,569.939,0.0
49180.0,STARLINK-3050,PAYLOAD,2023-08-28 20:56:30,14.98328546,0.0003069,69.9992,83.7257,271.2416,88.8391,4.5581e-05,4.51e-06,0.0,0 STARLINK-3050,1 49180U 21082BC  23240.87257151  .00000451  00000-0  45581-4 0  9999,2 49180  69.9992  83.7257 0003069 271.2416  88.8391 14.98328546109266,6950.197,96.107,574.195,569.929,0.0
49180.0,STARLINK-3050,PAYLOAD,2023-08-29 17:46:14,14.98331,0.0003065,69.9992,81.5373,269.607,90.4738,2.5587e-05,2.12e-06,0.0,0 STARLINK-3050,1 49180U 21082BC  23241.74045010  .00000212  00000-0  25587-4 0  9994,2 49180  69.9992  81.5373 0003065 269.6070  90.4738 14.98331000109391,6950.19,96.107,574.185,569.925,0.0
49180.0,STARLINK-3050,PAYLOAD,2023-08-30 19:24:21,14.98357779,0.0002868,69.9995,78.8461,273.0866,86.9965,0.00041208,4.831e-05,0.0,0 STARLINK-3050,1 49180U 21082BC  23242.80858156  .00004831  00000-0  41208-3 0  9993,2 49180  69.9995  78.8461 0002868 273.0866  86.9965 14.98357779109554,6950.107,96.105,573.965,569.979,0.0
49180.0,STARLINK-3050,PAYLOAD,2023-08-31 17:50:27,14.98168941,0.0002208,69.9993,76.4909,272.4546,87.636,-0.0016812,-0.00020011,0.0,0 STARLINK-3050,1 49180U 21082BC  23243.74337901 -.00020011  00000-0 -16812-2 0  9999,2 49180  69.9993  76.4909 0002208 272.4546  87.6360 14.98168941109692,6950.691,96.117,574.091,571.021,0.0
49180.0,STARLINK-3050,PAYLOAD,2023-08-31 22:38:45,14.98282244,0.0002771,69.9991,75.9857,256.3375,103.7476,-0.0012679,-0.0001517,0.0,0 STARLINK-3050,1 49180U 21082BC  23243.94357968 -.00015170  00000-0 -12679-2 0  9993,2 49180  69.9991  75.9857 0002771 256.3375 103.7476 14.98282244109727,6950.341,96.11,574.132,570.28,0.0
49180.0,STARLINK-3050,PAYLOAD,2023-09-01 13:03:56,14.98269913,0.0003691,69.9975,74.4706,265.4221,94.6516,-0.00040816,-4.952e-05,0.0,0 STARLINK-3050,1 49180U 21082BC  23244.54440870 -.00004952  00000-0 -40816-3 0  9996,2 49180  69.9975  74.4706 0003691 265.4221  94.6516 14.98269913109810,6950.379,96.111,574.809,569.678,0.0
49180.0,STARLINK-3050,PAYLOAD,2023-09-01 21:04:37,14.98222406,0.0002434,69.9979,73.6275,251.3799,108.7095,0.00054,6.338e-05,0.0,0 STARLINK-3050,1 49180U 21082BC  23244.87821626  .00006338  00000-0  54000-3 0  9992,2 49180  69.9979  73.6275 0002434 251.3799 108.7095 14.98222406109864,6950.526,96.114,574.082,570.699,0.0
49180.0,STARLINK-3050,PAYLOAD,2023-09-02 01:52:59,14.98273432,0.0002847,69.9982,73.1224,251.516,108.5689,0.00096215,0.00011389,0.0,0 STARLINK-3050,1 49180U 21082BC  23245.07846088  .00011389  00000-0  96215-3 0  9990,2 49180  69.9982  73.1224 0002847 251.5160 108.5689 14.98273432109894,6950.368,96.111,574.212,570.254,0.0
49180.0,STARLINK-3050,PAYLOAD,2023-09-02 13:05:54,14.98325096,0.0002984,69.9991,71.9424,269.1968,90.885,0.00012962,1.454e-05,0.0,0 STARLINK-3050,1 49180U 21082BC  23245.54576824  .00001454  00000-0  12962-3 0  9999,2 49180  69.9991  71.9424 0002984 269.1968  90.8850 14.98325096109960,6950.208,96.107,574.147,569.999,0.0
